start=new Date('2023-05-01T00:00:00.000Z').valueOf();
sats=[{"FILE":"3897693","RA_OF_ASC_NODE":"54.9033","MEAN_MOTION":"15.08832436","TLE_LINE2":"2 52501  53.2174  54.9033 0001129  99.0745 261.0375 15.08832436 54977","REV_AT_EPOCH":"5497","DECAY_DATE":null,"MEAN_MOTION_DOT":"-0.00000024","MEAN_ELEMENT_THEORY":"SGP4","REF_FRAME":"TEME","OBJECT_TYPE":"PAYLOAD","GP_ID":"230985618","APOAPSIS":"540.550","MEAN_MOTION_DDOT":"0.0000000000000","OBJECT_ID":"2022-049BC","CLASSIFICATION_TYPE":"U","TLE_LINE1":"1 52501U 22049BC  23120.84749963 -.00000024  00000-0  16568-4 0  9995","LAUNCH_DATE":"2022-05-06","NORAD_CAT_ID":"52501","TIME_SYSTEM":"UTC","CENTER_NAME":"EARTH","COUNTRY_CODE":"US","EPHEMERIS_TYPE":"0","ELEMENT_SET_NO":"999","EPOCH":"2023-04-30T20:20:23.968032","ECCENTRICITY":"0.00011290","SEMIMAJOR_AXIS":"6917.904","BSTAR":"0.00001656800000","RCS_SIZE":"LARGE","MEAN_ANOMALY":"261.0375","INCLINATION":"53.2174","PERIOD":"95.438","OBJECT_NAME":"STARLINK-3907","ARG_OF_PERICENTER":"99.0745","SITE":"AFETR","PERIAPSIS":"538.987"},{"EPHEMERIS_TYPE":"0","COUNTRY_CODE":"US","BSTAR":"0.00002350200000","SEMIMAJOR_AXIS":"6917.854","ECCENTRICITY":"0.00010810","EPOCH":"2023-04-30T04:17:18.237120","ELEMENT_SET_NO":"999","ARG_OF_PERICENTER":"96.4174","OBJECT_NAME":"STARLINK-3912","INCLINATION":"53.2182","PERIOD":"95.437","MEAN_ANOMALY":"263.6942","RCS_SIZE":"LARGE","PERIAPSIS":"538.971","SITE":"AFETR","MEAN_ELEMENT_THEORY":"SGP4","MEAN_MOTION_DOT":"0.00000086","DECAY_DATE":null,"TLE_LINE2":"2 52502  53.2182  48.1445 0001081  96.4174 263.6942 15.08848773 54848","REV_AT_EPOCH":"5484","MEAN_MOTION":"15.08848773","RA_OF_ASC_NODE":"48.1445","FILE":"3897442","REF_FRAME":"TEME","NORAD_CAT_ID":"52502","TLE_LINE1":"1 52502U 22049BD  23120.17868330  .00000086  00000-0  23502-4 0  9995","LAUNCH_DATE":"2022-05-06","CLASSIFICATION_TYPE":"U","OBJECT_ID":"2022-049BD","MEAN_MOTION_DDOT":"0.0000000000000","APOAPSIS":"540.466","GP_ID":"230977796","OBJECT_TYPE":"PAYLOAD","TIME_SYSTEM":"UTC","CENTER_NAME":"EARTH"},{"COUNTRY_CODE":"US","EPHEMERIS_TYPE":"0","ELEMENT_SET_NO":"999","EPOCH":"2023-04-30T07:34:15.163392","ECCENTRICITY":"0.00016310","SEMIMAJOR_AXIS":"6920.988","BSTAR":"0.00477360000000","RCS_SIZE":"LARGE","MEAN_ANOMALY":"277.2615","INCLINATION":"53.2179","PERIOD":"95.502","OBJECT_NAME":"STARLINK-3861","ARG_OF_PERICENTER":"82.8562","SITE":"AFETR","PERIAPSIS":"541.724","FILE":"3897442","RA_OF_ASC_NODE":"47.5478","MEAN_MOTION":"15.07823996","REV_AT_EPOCH":"5486","TLE_LINE2":"2 52503  53.2179  47.5478 0001631  82.8562 277.2615 15.07823996 54864","DECAY_DATE":null,"MEAN_MOTION_DOT":"0.00074391","MEAN_ELEMENT_THEORY":"SGP4","REF_FRAME":"TEME","OBJECT_TYPE":"PAYLOAD","GP_ID":"230977045","MEAN_MOTION_DDOT":"0.0000000000000","APOAPSIS":"543.981","OBJECT_ID":"2022-049BE","CLASSIFICATION_TYPE":"U","TLE_LINE1":"1 52503U 22049BE  23120.31545328  .00074391  00000-0  47736-2 0  9994","LAUNCH_DATE":"2022-05-06","NORAD_CAT_ID":"52503","TIME_SYSTEM":"UTC","CENTER_NAME":"EARTH"},{"RCS_SIZE":"LARGE","INCLINATION":"53.2145","PERIOD":"95.437","MEAN_ANOMALY":"33.5589","ARG_OF_PERICENTER":"83.6150","OBJECT_NAME":"STARLINK-3951","SITE":"AFWTR","PERIAPSIS":"538.747","COUNTRY_CODE":"US","EPHEMERIS_TYPE":"0","ECCENTRICITY":"0.00014170","ELEMENT_SET_NO":"999","EPOCH":"2023-04-30T16:00:00.999936","SEMIMAJOR_AXIS":"6917.862","BSTAR":"-0.00146940000000","GP_ID":"230953301","OBJECT_TYPE":"PAYLOAD","OBJECT_ID":"2022-051A","MEAN_MOTION_DDOT":"0.0000000000000","APOAPSIS":"540.708","LAUNCH_DATE":"2022-05-13","TLE_LINE1":"1 52533U 22051A   23120.66667824 -.00023601  00000-0 -14694-2 0  9991","CLASSIFICATION_TYPE":"U","NORAD_CAT_ID":"52533","TIME_SYSTEM":"UTC","CENTER_NAME":"EARTH","RA_OF_ASC_NODE":"136.0626","FILE":"3897424","REV_AT_EPOCH":"5389","TLE_LINE2":"2 52533  53.2145 136.0626 0001417  83.6150  33.5589 15.08845928 53898","MEAN_MOTION":"15.08845928","MEAN_MOTION_DOT":"-0.00023601","DECAY_DATE":null,"MEAN_ELEMENT_THEORY":"SGP4","REF_FRAME":"TEME"},{"TIME_SYSTEM":"UTC","CENTER_NAME":"EARTH","GP_ID":"230976795","OBJECT_TYPE":"PAYLOAD","OBJECT_ID":"2022-051B","APOAPSIS":"540.682","MEAN_MOTION_DDOT":"0.0000000000000","TLE_LINE1":"1 52534U 22051B   23120.30655474  .00000748  00000-0  65086-4 0  9999","LAUNCH_DATE":"2022-05-13","CLASSIFICATION_TYPE":"U","NORAD_CAT_ID":"52534","REF_FRAME":"TEME","RA_OF_ASC_NODE":"137.5373","FILE":"3897442","REV_AT_EPOCH":"5451","TLE_LINE2":"2 52534  53.2163 137.5373 0001372  81.1385 278.9762 15.08844193 54518","MEAN_MOTION":"15.08844193","MEAN_MOTION_DOT":"0.00000748","DECAY_DATE":null,"MEAN_ELEMENT_THEORY":"SGP4","SITE":"AFWTR","PERIAPSIS":"538.783","RCS_SIZE":"LARGE","INCLINATION":"53.2163","PERIOD":"95.437","MEAN_ANOMALY":"278.9762","ARG_OF_PERICENTER":"81.1385","OBJECT_NAME":"STARLINK-3952","ECCENTRICITY":"0.00013720","EPOCH":"2023-04-30T07:21:26.329536","ELEMENT_SET_NO":"999","SEMIMAJOR_AXIS":"6917.868","BSTAR":"0.00006508600000","COUNTRY_CODE":"US","EPHEMERIS_TYPE":"0"},{"COUNTRY_CODE":"US","EPHEMERIS_TYPE":"0","ECCENTRICITY":"0.00013580","ELEMENT_SET_NO":"999","EPOCH":"2023-04-30T08:51:32.023296","SEMIMAJOR_AXIS":"6917.873","BSTAR":"0.00000009084700","RCS_SIZE":"LARGE","PERIOD":"95.437","INCLINATION":"53.2162","MEAN_ANOMALY":"273.8418","ARG_OF_PERICENTER":"86.2729","OBJECT_NAME":"STARLINK-3958","SITE":"AFWTR","PERIAPSIS":"538.799","RA_OF_ASC_NODE":"137.2535","FILE":"3897442","TLE_LINE2":"2 52535  53.2162 137.2535 0001358  86.2729 273.8418 15.08842296 53789","REV_AT_EPOCH":"5378","MEAN_MOTION":"15.08842296","MEAN_MOTION_DOT":"-0.00000286","DECAY_DATE":null,"MEAN_ELEMENT_THEORY":"SGP4","REF_FRAME":"TEME","GP_ID":"230978047","OBJECT_TYPE":"PAYLOAD","OBJECT_ID":"2022-051C","MEAN_MOTION_DDOT":"0.0000000000000","APOAPSIS":"540.678","TLE_LINE1":"1 52535U 22051C   23120.36912064 -.00000286  00000-0  90847-7 0  9991","LAUNCH_DATE":"2022-05-13","CLASSIFICATION_TYPE":"U","NORAD_CAT_ID":"52535","CENTER_NAME":"EARTH","TIME_SYSTEM":"UTC"},{"MEAN_ELEMENT_THEORY":"SGP4","MEAN_MOTION_DOT":"0.00000193","DECAY_DATE":null,"TLE_LINE2":"2 52536  53.2156 136.3804 0001280  99.4729 260.6408 15.08844242 53889","REV_AT_EPOCH":"5388","MEAN_MOTION":"15.08844242","RA_OF_ASC_NODE":"136.3804","FILE":"3897433","REF_FRAME":"TEME","NORAD_CAT_ID":"52536","CLASSIFICATION_TYPE":"U","TLE_LINE1":"1 52536U 22051D   23120.56415606  .00000193  00000-0  30209-4 0  9993","LAUNCH_DATE":"2022-05-13","OBJECT_ID":"2022-051D","APOAPSIS":"540.618","MEAN_MOTION_DDOT":"0.0000000000000","GP_ID":"230953336","OBJECT_TYPE":"PAYLOAD","TIME_SYSTEM":"UTC","CENTER_NAME":"EARTH","EPHEMERIS_TYPE":"0","COUNTRY_CODE":"US","BSTAR":"0.00003020900000","SEMIMAJOR_AXIS":"6917.867","ECCENTRICITY":"0.00012800","EPOCH":"2023-04-30T13:32:23.083584","ELEMENT_SET_NO":"999","ARG_OF_PERICENTER":"99.4729","OBJECT_NAME":"STARLINK-3964","PERIOD":"95.437","INCLINATION":"53.2156","MEAN_ANOMALY":"260.6408","RCS_SIZE":"LARGE","PERIAPSIS":"538.847","SITE":"AFWTR"},{"TIME_SYSTEM":"UTC","CENTER_NAME":"EARTH","CLASSIFICATION_TYPE":"U","TLE_LINE1":"1 52537U 22051E   23120.36175591  .00000491  00000-0  48950-4 0  9991","LAUNCH_DATE":"2022-05-13","NORAD_CAT_ID":"52537","GP_ID":"230977046","OBJECT_TYPE":"PAYLOAD","OBJECT_ID":"2022-051E","MEAN_MOTION_DDOT":"0.0000000000000","APOAPSIS":"540.657","REF_FRAME":"TEME","MEAN_MOTION_DOT":"0.00000491","DECAY_DATE":null,"MEAN_ELEMENT_THEORY":"SGP4","RA_OF_ASC_NODE":"137.2883","FILE":"3897442","REV_AT_EPOCH":"5378","TLE_LINE2":"2 52537  53.2148 137.2883 0001333 112.6015 247.5118 15.08843286 53781","MEAN_MOTION":"15.08843286","PERIAPSIS":"538.813","SITE":"AFWTR","ARG_OF_PERICENTER":"112.6015","OBJECT_NAME":"STARLINK-3897","RCS_SIZE":"LARGE","INCLINATION":"53.2148","PERIOD":"95.437","MEAN_ANOMALY":"247.5118","BSTAR":"0.00004895000000","ECCENTRICITY":"0.00013330","EPOCH":"2023-04-30T08:40:55.710624","ELEMENT_SET_NO":"999","SEMIMAJOR_AXIS":"6917.870","COUNTRY_CODE":"US","EPHEMERIS_TYPE":"0"},{"BSTAR":"0.00014221000000","SEMIMAJOR_AXIS":"6917.853","ECCENTRICITY":"0.00012920","ELEMENT_SET_NO":"999","EPOCH":"2023-04-30T13:16:29.008992","EPHEMERIS_TYPE":"0","COUNTRY_CODE":"US","PERIAPSIS":"538.824","SITE":"AFWTR","ARG_OF_PERICENTER":"113.2508","OBJECT_NAME":"STARLINK-3933","INCLINATION":"53.2154","PERIOD":"95.437","MEAN_ANOMALY":"246.8620","RCS_SIZE":"LARGE","REF_FRAME":"TEME","MEAN_ELEMENT_THEORY":"SGP4","MEAN_MOTION_DOT":"0.00001977","DECAY_DATE":null,"REV_AT_EPOCH":"5381","TLE_LINE2":"2 52538  53.2154 136.4277 0001292 113.2508 246.8620 15.08848980 53815","MEAN_MOTION":"15.08848980","RA_OF_ASC_NODE":"136.4277","FILE":"3897442","CENTER_NAME":"EARTH","TIME_SYSTEM":"UTC","NORAD_CAT_ID":"52538","TLE_LINE1":"1 52538U 22051F   23120.55311353  .00001977  00000-0  14221-3 0  9994","LAUNCH_DATE":"2022-05-13","CLASSIFICATION_TYPE":"U","OBJECT_ID":"2022-051F","MEAN_MOTION_DDOT":"0.0000000000000","APOAPSIS":"540.612","GP_ID":"230977296","OBJECT_TYPE":"PAYLOAD"},{"PERIAPSIS":"538.851","SITE":"AFWTR","OBJECT_NAME":"STARLINK-3757","ARG_OF_PERICENTER":"96.3989","MEAN_ANOMALY":"263.7149","INCLINATION":"53.2159","PERIOD":"95.437","RCS_SIZE":"LARGE","BSTAR":"-0.00001503900000","SEMIMAJOR_AXIS":"6917.867","EPOCH":"2023-04-30T13:21:47.234880","ELEMENT_SET_NO":"999","ECCENTRICITY":"0.00012730","EPHEMERIS_TYPE":"0","COUNTRY_CODE":"US","CENTER_NAME":"EARTH","TIME_SYSTEM":"UTC","NORAD_CAT_ID":"52539","CLASSIFICATION_TYPE":"U","TLE_LINE1":"1 52539U 22051G   23120.55679670 -.00000527  00000-0 -15039-4 0  9995","LAUNCH_DATE":"2022-05-13","APOAPSIS":"540.612","MEAN_MOTION_DDOT":"0.0000000000000","OBJECT_ID":"2022-051G","OBJECT_TYPE":"PAYLOAD","GP_ID":"230977547","REF_FRAME":"TEME","MEAN_ELEMENT_THEORY":"SGP4","DECAY_DATE":null,"MEAN_MOTION_DOT":"-0.00000527","MEAN_MOTION":"15.08844495","TLE_LINE2":"2 52539  53.2159 136.4158 0001273  96.3989 263.7149 15.08844495 53813","REV_AT_EPOCH":"5381","FILE":"3897442","RA_OF_ASC_NODE":"136.4158"}];
